CZ-4B R/B               
1 28059U 03049C   17280.39392044  .00000015  00000-0  15759-4 0  9999
2 28059  98.5441 168.4788 0048954 265.0676 190.9650 14.52500819739960
CZ-2C R/B               
1 28222U 04012C   17279.89219819  .00000940  00000-0  61271-4 0  9990
2 28222  97.5379 234.3642 0048661 160.9295 278.8358 15.09400882737420
SL-16 R/B               
1 28353U 04021B   17279.90584897  .00000281  00000-0  17198-3 0  9994
2 28353  71.0008 204.1701 0004341   7.0790 353.0393 14.14199671687942
CZ-2C R/B               
1 28480U 04046B   17280.39259274  .00000051  00000-0  35432-4 0  9992
2 28480  98.1956   9.3563 0140856 253.2913 147.8635 14.25650707670225
ARIANE 5 R/B            
1 28499U 04049H   17280.35857073  .00000147  00000-0  25635-4 0  9992
2 28499  98.0739   3.9980 0091717 212.7053 191.0915 14.79846508690580
CZ-2D R/B               
1 28738U 05024B   17280.30094119  .00000810  00000-0  51824-4 0  9997
2 28738  97.4866 314.9234 0011665 346.4833  13.6083 15.11290560672743
SUZAKU (ASTRO-EII)      
1 28773U 05025A   17280.45886733  .00001732  00000-0  83329-4 0  9993
2 28773  31.3829 288.2483 0004566  33.8943 326.1995 15.16083077674405
ALOS (DAICHI)           
1 28931U 06002A   17280.48838776  .00000237  00000-0  55526-4 0  9999
2 28931  97.8371 302.1899 0001380  48.5249 311.6075 14.62402596623874
H-2A R/B                
1 28932U 06002B   17280.54001944  .00000657  00000-0  67382-4 0  9995
2 28932  98.2078 207.9594 0088671 303.9496 162.0636 14.91500719634554
AKARI (ASTRO-F)         
1 28939U 06005A   17280.54336534  .00004845  00000-0  14661-3 0  9995
2 28939  98.2404 133.8426 0105567 155.9438 204.6783 15.29389709630288
RESURS-DK 1             
1 29228U 06021A   17280.77559002  .00000229  00000-0  24761-4 0  9992
2 29228  69.9357 171.6195 0005108 206.4571 153.6330 15.02219414625006
GENESIS 1               
1 29252U 06029A   17280.49585299  .00001085  00000-0  64589-4 0  9996
2 29252  64.5031 278.6728 0026489 316.5620  43.3415 15.16965178618861
CZ-4B R/B               
1 29507U 06046C   17280.46544455 -.00000494  00000-0 -33449-4 0  9990
2 29507  97.7891 288.1383 0050335 221.2072 138.5347 15.00162260597871
CZ-2C R/B               
1 31114U 07010B   17280.71600512  .00000007  00000-0  22780-4 0  9998
2 31114  98.3852 177.2937 0058621 248.6396 110.8519 14.19253295543472
COSMO-SKYMED 1          
1 31598U 07023A   17280.84861119 -.00000240  00000-0 -23626-4 0  9995
2 31598  97.8883 102.9356 0001333  84.0479 276.0893 14.82151626559133
GENESIS 2               
1 31789U 07028A   17280.59474520  .00000634  00000-0  42926-4 0  9999
2 31789  64.5039 316.6940 0017508 215.5756 144.4201 15.16238173565940
COSMOS 2428             
1 31792U 07029A   17280.81846557  .00000358  00000-0  22004-3 0  9999
2 31792  70.9303 175.6948 0006456 122.1433 238.0315 14.12348255529972
SL-16 R/B               
1 31793U 07029B   17280.66971611 -.00000096  00000-0 -24996-4 0  9997
2 31793  70.9759 152.8927 0002735 281.6934 109.9621 14.14392480530626
CZ-4B DEB               
1 33411U 08053D   17280.68261021  .00189448  00000-0  94369-3 0  9990
2 33411  97.3874 335.8255 0003918 206.2442 153.8628 15.81375381494017
KORONAS-FOTON           
1 33504U 09003A   17280.52546261  .00000595  00000-0  30024-4 0  9998
2 33504  82.4400 121.3540 0021011  82.4071 277.9546 15.14948911478482
TIANGONG 1              
1 37820U 11053A   17280.76457275  .00056701  92809-5  21526-3 0  9992
2 37820  42.7576 227.3108 0018588 166.8287 268.9873 15.87281209345800
H-2A R/B                
1 38341U 12025E   17280.33102200  .00000373  00000-0  51481-4 0  9994
2 38341  98.4283   3.5851 0056473 156.5552 203.8254 14.83638313291502
CUSAT 2 & FALCON 9 R/B  
1 39271U 13055G   17280.83945192  .00005962  00000-0  15377-3 0  9993
2 39271  80.9685 237.8249 0625943 228.5922 125.9851 14.38732923208816
ALOS-2                  
1 39766U 14029A   17280.85893151 -.00000026  00000-0  33781-5 0  9991
2 39766  97.9224  16.5689 0001591  83.8065 276.3311 14.79471691182268
SL-27 R/B               
1 40354U 14084B   17280.47286213  .00001997  00000-0  52452-4 0  9992
2 40354  74.7392 261.3265 0040721 228.5479 131.2233 15.38495114157128
ASTRO-H (HITOMI)        
1 41337U 16012A   17279.64343151  .00000443  00000-0  29299-4 0  9997
2 41337  31.0051 132.5069 0012331  61.0196 299.1674 14.98365479 89651
TIANGONG-2              
1 41765U 16057A   17280.78793080  .00008012  00000-0  10448-3 0  9993
2 41765  42.7839  46.0088 0004002 301.8377 212.3964 15.59069310 60551
SHENZHOU-11 MODULE      
1 41868U 16061G   17279.59575231  .00013712  00000-0  12600-3 0  9990
2 41868  42.7951  43.9442 0004165 195.2222 348.2849 15.67543357 50416
TIANZHOU 1              
1 42684U 17021A   17264.10196765  .00025036  00000-0  31524-3 0  9994
2 42684  42.7846 145.1653 0002796 246.0577 114.0462 15.59122908 23989
